STARLINK-36754          
1 67725U 26026E   26067.50002314 -.00005062  00000+0 -91576-4 0  9995
2 67725  97.2846 121.9924 0001511  94.6774 322.2655 15.49153713  5120
STARLINK-36755          
1 67726U 26026F   26067.50002314  .00067194  00000+0  12286-2 0  9997
2 67726  97.2850 121.9691 0001440  93.0356 265.4484 15.49142219  5124
STARLINK-36741          
1 67727U 26026G   26067.50002314  .00092246  00000+0  16811-2 0  9992
2 67727  97.2845 121.9841 0001054  92.1398 301.6728 15.49135048  5129
STARLINK-36757          
1 67728U 26026H   26067.50002314 -.01818823  00000+0 -33375-1 0  9996
2 67728  97.2842 122.0371 0002086  77.2240  79.0268 15.52608209  5126
STARLINK-36751          
1 67729U 26026J   26067.50002314 -.01813530  00000+0 -32595-1 0  9990
2 67729  97.2841 122.0492 0001843  72.4765 111.3698 15.53172693  5120
STARLINK-36747          
1 67730U 26026K   26067.50002314 -.01803761  00000+0 -32521-1 0  9996
2 67730  97.2841 122.0446 0001816  68.1930 104.7417 15.53067829  5126
STARLINK-36315          
1 67731U 26026L   26067.50002314 -.01814772  00000+0 -32407-1 0  9994
2 67731  97.2845 122.0537 0002026  75.9838 117.5034 15.53350201  5125
STARLINK-36260          
1 67732U 26026M   26067.50002314 -.01828946  00000+0 -32233-1 0  9990
2 67732  97.2847 122.0600 0001935  77.9563 131.0883 15.53739380  5126
STARLINK-36746          
1 67733U 26026N   26067.42852770  .00083282  00000+0  15132-2 0  9994
2 67733  97.2847 121.7590 0001219  83.2603 276.8787 15.49258043  3914
STARLINK-36749          
1 67734U 26026P   26067.50002314  .00060756  00000+0  11119-2 0  9997
2 67734  97.2849 121.9961 0001669  86.3685 334.0344 15.49145074  5124
STARLINK-36691          
1 67735U 26026Q   26067.50002314 -.01798629  00000+0 -30706-1 0  9990
2 67735  97.2846 122.0815 0001752  82.7211 176.3785 15.54553028  5269
STARLINK-36317          
1 67736U 26026R   26067.50002314 -.01814016  00000+0 -31283-1 0  9991
2 67736  97.2848 122.0748 0001758  83.0265 160.8794 15.54306123  5121
