CCSDS_OMM_VERS = 2.0
CREATION_DATE  = 
ORIGINATOR     = 

OBJECT_NAME    = STARLINK-36754
OBJECT_ID      = 2026-026E
CENTER_NAME    = EARTH
REF_FRAME      = TEME
TIME_SYSTEM    = UTC
MEAN_ELEMENT_THEORY = SGP/SGP4

EPOCH          = 2026-03-08T12:00:01.999296
MEAN_MOTION    = 15.49153713
ECCENTRICITY   = .0001511
INCLINATION    = 97.2846
RA_OF_ASC_NODE = 121.9924
ARG_OF_PERICENTER = 94.6774
MEAN_ANOMALY   = 322.2655

EPHEMERIS_TYPE = 0
CLASSIFICATION_TYPE = U
NORAD_CAT_ID   = 67725
ELEMENT_SET_NO = 999
REV_AT_EPOCH   = 512
BSTAR          = -.91576E-4
MEAN_MOTION_DOT = -.5062E-4
MEAN_MOTION_DDOT = 0

CCSDS_OMM_VERS = 2.0
CREATION_DATE  = 
ORIGINATOR     = 

OBJECT_NAME    = STARLINK-36755
OBJECT_ID      = 2026-026F
CENTER_NAME    = EARTH
REF_FRAME      = TEME
TIME_SYSTEM    = UTC
MEAN_ELEMENT_THEORY = SGP/SGP4

EPOCH          = 2026-03-08T12:00:01.999296
MEAN_MOTION    = 15.49142219
ECCENTRICITY   = .000144
INCLINATION    = 97.2850
RA_OF_ASC_NODE = 121.9691
ARG_OF_PERICENTER = 93.0356
MEAN_ANOMALY   = 265.4484

EPHEMERIS_TYPE = 0
CLASSIFICATION_TYPE = U
NORAD_CAT_ID   = 67726
ELEMENT_SET_NO = 999
REV_AT_EPOCH   = 512
BSTAR          = .12286E-2
MEAN_MOTION_DOT = .67194E-3
MEAN_MOTION_DDOT = 0

CCSDS_OMM_VERS = 2.0
CREATION_DATE  = 
ORIGINATOR     = 

OBJECT_NAME    = STARLINK-36741
OBJECT_ID      = 2026-026G
CENTER_NAME    = EARTH
REF_FRAME      = TEME
TIME_SYSTEM    = UTC
MEAN_ELEMENT_THEORY = SGP/SGP4

EPOCH          = 2026-03-08T12:00:01.999296
MEAN_MOTION    = 15.49135048
ECCENTRICITY   = .0001054
INCLINATION    = 97.2845
RA_OF_ASC_NODE = 121.9841
ARG_OF_PERICENTER = 92.1398
MEAN_ANOMALY   = 301.6728

EPHEMERIS_TYPE = 0
CLASSIFICATION_TYPE = U
NORAD_CAT_ID   = 67727
ELEMENT_SET_NO = 999
REV_AT_EPOCH   = 512
BSTAR          = .16811E-2
MEAN_MOTION_DOT = .92246E-3
MEAN_MOTION_DDOT = 0

CCSDS_OMM_VERS = 2.0
CREATION_DATE  = 
ORIGINATOR     = 

OBJECT_NAME    = STARLINK-36757
OBJECT_ID      = 2026-026H
CENTER_NAME    = EARTH
REF_FRAME      = TEME
TIME_SYSTEM    = UTC
MEAN_ELEMENT_THEORY = SGP/SGP4

EPOCH          = 2026-03-08T12:00:01.999296
MEAN_MOTION    = 15.52608209
ECCENTRICITY   = .0002086
INCLINATION    = 97.2842
RA_OF_ASC_NODE = 122.0371
ARG_OF_PERICENTER = 77.2240
MEAN_ANOMALY   = 79.0268

EPHEMERIS_TYPE = 0
CLASSIFICATION_TYPE = U
NORAD_CAT_ID   = 67728
ELEMENT_SET_NO = 999
REV_AT_EPOCH   = 512
BSTAR          = -.33375E-1
MEAN_MOTION_DOT = -.1818823E-1
MEAN_MOTION_DDOT = 0

CCSDS_OMM_VERS = 2.0
CREATION_DATE  = 
ORIGINATOR     = 

OBJECT_NAME    = STARLINK-36751
OBJECT_ID      = 2026-026J
CENTER_NAME    = EARTH
REF_FRAME      = TEME
TIME_SYSTEM    = UTC
MEAN_ELEMENT_THEORY = SGP/SGP4

EPOCH          = 2026-03-08T12:00:01.999296
MEAN_MOTION    = 15.53172693
ECCENTRICITY   = .0001843
INCLINATION    = 97.2841
RA_OF_ASC_NODE = 122.0492
ARG_OF_PERICENTER = 72.4765
MEAN_ANOMALY   = 111.3698

EPHEMERIS_TYPE = 0
CLASSIFICATION_TYPE = U
NORAD_CAT_ID   = 67729
ELEMENT_SET_NO = 999
REV_AT_EPOCH   = 512
BSTAR          = -.32595E-1
MEAN_MOTION_DOT = -.181353E-1
MEAN_MOTION_DDOT = 0

CCSDS_OMM_VERS = 2.0
CREATION_DATE  = 
ORIGINATOR     = 

OBJECT_NAME    = STARLINK-36747
OBJECT_ID      = 2026-026K
CENTER_NAME    = EARTH
REF_FRAME      = TEME
TIME_SYSTEM    = UTC
MEAN_ELEMENT_THEORY = SGP/SGP4

EPOCH          = 2026-03-08T12:00:01.999296
MEAN_MOTION    = 15.53067829
ECCENTRICITY   = .0001816
INCLINATION    = 97.2841
RA_OF_ASC_NODE = 122.0446
ARG_OF_PERICENTER = 68.1930
MEAN_ANOMALY   = 104.7417

EPHEMERIS_TYPE = 0
CLASSIFICATION_TYPE = U
NORAD_CAT_ID   = 67730
ELEMENT_SET_NO = 999
REV_AT_EPOCH   = 512
BSTAR          = -.32521E-1
MEAN_MOTION_DOT = -.1803761E-1
MEAN_MOTION_DDOT = 0

CCSDS_OMM_VERS = 2.0
CREATION_DATE  = 
ORIGINATOR     = 

OBJECT_NAME    = STARLINK-36315
OBJECT_ID      = 2026-026L
CENTER_NAME    = EARTH
REF_FRAME      = TEME
TIME_SYSTEM    = UTC
MEAN_ELEMENT_THEORY = SGP/SGP4

EPOCH          = 2026-03-08T12:00:01.999296
MEAN_MOTION    = 15.53350201
ECCENTRICITY   = .0002026
INCLINATION    = 97.2845
RA_OF_ASC_NODE = 122.0537
ARG_OF_PERICENTER = 75.9838
MEAN_ANOMALY   = 117.5034

EPHEMERIS_TYPE = 0
CLASSIFICATION_TYPE = U
NORAD_CAT_ID   = 67731
ELEMENT_SET_NO = 999
REV_AT_EPOCH   = 512
BSTAR          = -.32407E-1
MEAN_MOTION_DOT = -.1814772E-1
MEAN_MOTION_DDOT = 0

CCSDS_OMM_VERS = 2.0
CREATION_DATE  = 
ORIGINATOR     = 

OBJECT_NAME    = STARLINK-36260
OBJECT_ID      = 2026-026M
CENTER_NAME    = EARTH
REF_FRAME      = TEME
TIME_SYSTEM    = UTC
MEAN_ELEMENT_THEORY = SGP/SGP4

EPOCH          = 2026-03-08T12:00:01.999296
MEAN_MOTION    = 15.53739380
ECCENTRICITY   = .0001935
INCLINATION    = 97.2847
RA_OF_ASC_NODE = 122.0600
ARG_OF_PERICENTER = 77.9563
MEAN_ANOMALY   = 131.0883

EPHEMERIS_TYPE = 0
CLASSIFICATION_TYPE = U
NORAD_CAT_ID   = 67732
ELEMENT_SET_NO = 999
REV_AT_EPOCH   = 512
BSTAR          = -.32233E-1
MEAN_MOTION_DOT = -.1828946E-1
MEAN_MOTION_DDOT = 0

CCSDS_OMM_VERS = 2.0
CREATION_DATE  = 
ORIGINATOR     = 

OBJECT_NAME    = STARLINK-36746
OBJECT_ID      = 2026-026N
CENTER_NAME    = EARTH
REF_FRAME      = TEME
TIME_SYSTEM    = UTC
MEAN_ELEMENT_THEORY = SGP/SGP4

EPOCH          = 2026-03-08T10:17:04.793280
MEAN_MOTION    = 15.49258043
ECCENTRICITY   = .0001219
INCLINATION    = 97.2847
RA_OF_ASC_NODE = 121.7590
ARG_OF_PERICENTER = 83.2603
MEAN_ANOMALY   = 276.8787

EPHEMERIS_TYPE = 0
CLASSIFICATION_TYPE = U
NORAD_CAT_ID   = 67733
ELEMENT_SET_NO = 999
REV_AT_EPOCH   = 391
BSTAR          = .15132E-2
MEAN_MOTION_DOT = .83282E-3
MEAN_MOTION_DDOT = 0

CCSDS_OMM_VERS = 2.0
CREATION_DATE  = 
ORIGINATOR     = 

OBJECT_NAME    = STARLINK-36749
OBJECT_ID      = 2026-026P
CENTER_NAME    = EARTH
REF_FRAME      = TEME
TIME_SYSTEM    = UTC
MEAN_ELEMENT_THEORY = SGP/SGP4

EPOCH          = 2026-03-08T12:00:01.999296
MEAN_MOTION    = 15.49145074
ECCENTRICITY   = .0001669
INCLINATION    = 97.2849
RA_OF_ASC_NODE = 121.9961
ARG_OF_PERICENTER = 86.3685
MEAN_ANOMALY   = 334.0344

EPHEMERIS_TYPE = 0
CLASSIFICATION_TYPE = U
NORAD_CAT_ID   = 67734
ELEMENT_SET_NO = 999
REV_AT_EPOCH   = 512
BSTAR          = .11119E-2
MEAN_MOTION_DOT = .60756E-3
MEAN_MOTION_DDOT = 0

CCSDS_OMM_VERS = 2.0
CREATION_DATE  = 
ORIGINATOR     = 

OBJECT_NAME    = STARLINK-36691
OBJECT_ID      = 2026-026Q
CENTER_NAME    = EARTH
REF_FRAME      = TEME
TIME_SYSTEM    = UTC
MEAN_ELEMENT_THEORY = SGP/SGP4

EPOCH          = 2026-03-08T12:00:01.999296
MEAN_MOTION    = 15.54553028
ECCENTRICITY   = .0001752
INCLINATION    = 97.2846
RA_OF_ASC_NODE = 122.0815
ARG_OF_PERICENTER = 82.7211
MEAN_ANOMALY   = 176.3785

EPHEMERIS_TYPE = 0
CLASSIFICATION_TYPE = U
NORAD_CAT_ID   = 67735
ELEMENT_SET_NO = 999
REV_AT_EPOCH   = 526
BSTAR          = -.30706E-1
MEAN_MOTION_DOT = -.1798629E-1
MEAN_MOTION_DDOT = 0

CCSDS_OMM_VERS = 2.0
CREATION_DATE  = 
ORIGINATOR     = 

OBJECT_NAME    = STARLINK-36317
OBJECT_ID      = 2026-026R
CENTER_NAME    = EARTH
REF_FRAME      = TEME
TIME_SYSTEM    = UTC
MEAN_ELEMENT_THEORY = SGP/SGP4

EPOCH          = 2026-03-08T12:00:01.999296
MEAN_MOTION    = 15.54306123
ECCENTRICITY   = .0001758
INCLINATION    = 97.2848
RA_OF_ASC_NODE = 122.0748
ARG_OF_PERICENTER = 83.0265
MEAN_ANOMALY   = 160.8794

EPHEMERIS_TYPE = 0
CLASSIFICATION_TYPE = U
NORAD_CAT_ID   = 67736
ELEMENT_SET_NO = 999
REV_AT_EPOCH   = 512
BSTAR          = -.31283E-1
MEAN_MOTION_DOT = -.1814016E-1
MEAN_MOTION_DDOT = 0

